[
    {
        "OBJECT_NAME": "BEIDOU-2 M6 (C14)",
        "OBJECT_ID": "2012-050B",
        "EPOCH": "2025-11-17T19:22:17.652864",
        "MEAN_MOTION": 1.86230929,
        "ECCENTRICITY": 0.0010581,
        "INCLINATION": 56.3576,
        "RA_OF_ASC_NODE": 69.8947,
        "ARG_OF_PERICENTER": 349.1232,
        "MEAN_ANOMALY": 10.8356,
        "EPHEMERIS_TYPE": 0,
        "CLASSIFICATION_TYPE": "U",
        "NORAD_CAT_ID": 38775,
        "ELEMENT_SET_NO": 999,
        "REV_AT_EPOCH": 8937,
        "BSTAR": 0,
        "MEAN_MOTION_DOT": -6.5e-7,
        "MEAN_MOTION_DDOT": 0
    },
    {
        "OBJECT_NAME": "GSAT-10 (GAGAN/PRN 128)",
        "OBJECT_ID": "2012-051B",
        "EPOCH": "2025-11-18T02:36:11.231712",
        "MEAN_MOTION": 1.00272402,
        "ECCENTRICITY": 0.000342,
        "INCLINATION": 0.0693,
        "RA_OF_ASC_NODE": 263.1503,
        "ARG_OF_PERICENTER": 229.9165,
        "MEAN_ANOMALY": 46.4019,
        "EPHEMERIS_TYPE": 0,
        "CLASSIFICATION_TYPE": "U",
        "NORAD_CAT_ID": 38779,
        "ELEMENT_SET_NO": 999,
        "REV_AT_EPOCH": 4798,
        "BSTAR": 0,
        "MEAN_MOTION_DOT": -1.48e-6,
        "MEAN_MOTION_DDOT": 0
    },
    {
        "OBJECT_NAME": "GPS BIIF-3  (PRN 24)",
        "OBJECT_ID": "2012-053A",
        "EPOCH": "2025-11-17T22:08:33.942048",
        "MEAN_MOTION": 2.00564848,
        "ECCENTRICITY": 0.0175002,
        "INCLINATION": 53.5529,
        "RA_OF_ASC_NODE": 152.2552,
        "ARG_OF_PERICENTER": 63.6017,
        "MEAN_ANOMALY": 298.249,
        "EPHEMERIS_TYPE": 0,
        "CLASSIFICATION_TYPE": "U",
        "NORAD_CAT_ID": 38833,
        "ELEMENT_SET_NO": 999,
        "REV_AT_EPOCH": 9520,
        "BSTAR": 0,
        "MEAN_MOTION_DOT": 9.2e-7,
        "MEAN_MOTION_DDOT": 0
    },
    {
        "OBJECT_NAME": "GSAT0103 (GALILEO-FM3)",
        "OBJECT_ID": "2012-055A",
        "EPOCH": "2025-11-17T17:13:37.436160",
        "MEAN_MOTION": 1.70473465,
        "ECCENTRICITY": 0.0001959,
        "INCLINATION": 55.6776,
        "RA_OF_ASC_NODE": 107.3534,
        "ARG_OF_PERICENTER": 267.7118,
        "MEAN_ANOMALY": 92.2398,
        "EPHEMERIS_TYPE": 0,
        "CLASSIFICATION_TYPE": "U",
        "NORAD_CAT_ID": 38857,
        "ELEMENT_SET_NO": 999,
        "REV_AT_EPOCH": 8140,
        "BSTAR": 0,
        "MEAN_MOTION_DOT": 3.2e-7,
        "MEAN_MOTION_DDOT": 0
    },
    {
        "OBJECT_NAME": "BEIDOU-2 G6 (C02)",
        "OBJECT_ID": "2012-059A",
        "EPOCH": "2025-11-17T23:10:59.352672",
        "MEAN_MOTION": 1.00274741,
        "ECCENTRICITY": 0.0006936,
        "INCLINATION": 3.8847,
        "RA_OF_ASC_NODE": 75.7459,
        "ARG_OF_PERICENTER": 296.2228,
        "MEAN_ANOMALY": 117.0432,
        "EPHEMERIS_TYPE": 0,
        "CLASSIFICATION_TYPE": "U",
        "NORAD_CAT_ID": 38953,
        "ELEMENT_SET_NO": 999,
        "REV_AT_EPOCH": 4779,
        "BSTAR": 0,
        "MEAN_MOTION_DOT": -1.59e-6,
        "MEAN_MOTION_DDOT": 0
    },
    {
        "OBJECT_NAME": "LUCH 5B (SDCM/PRN 125)",
        "OBJECT_ID": "2012-061A",
        "EPOCH": "2025-11-18T00:24:59.759712",
        "MEAN_MOTION": 1.00271237,
        "ECCENTRICITY": 0.0007182,
        "INCLINATION": 10.0271,
        "RA_OF_ASC_NODE": 51.9358,
        "ARG_OF_PERICENTER": 182.7537,
        "MEAN_ANOMALY": 172.6113,
        "EPHEMERIS_TYPE": 0,
        "CLASSIFICATION_TYPE": "U",
        "NORAD_CAT_ID": 38977,
        "ELEMENT_SET_NO": 999,
        "REV_AT_EPOCH": 4748,
        "BSTAR": 0,
        "MEAN_MOTION_DOT": -1.23e-6,
        "MEAN_MOTION_DDOT": 0
    },
    {
        "OBJECT_NAME": "GPS BIIF-4  (PRN 27)",
        "OBJECT_ID": "2013-023A",
        "EPOCH": "2025-11-17T18:52:21.004608",
        "MEAN_MOTION": 2.0056531,
        "ECCENTRICITY": 0.0136392,
        "INCLINATION": 54.6737,
        "RA_OF_ASC_NODE": 277.5823,
        "ARG_OF_PERICENTER": 48.3559,
        "MEAN_ANOMALY": 312.7822,
        "EPHEMERIS_TYPE": 0,
        "CLASSIFICATION_TYPE": "U",
        "NORAD_CAT_ID": 39166,
        "ELEMENT_SET_NO": 999,
        "REV_AT_EPOCH": 9164,
        "BSTAR": 0,
        "MEAN_MOTION_DOT": -6.7e-7,
        "MEAN_MOTION_DDOT": 0
    },
    {
        "OBJECT_NAME": "IRNSS-1A",
        "OBJECT_ID": "2013-034A",
        "EPOCH": "2025-11-17T21:19:40.018368",
        "MEAN_MOTION": 1.00274675,
        "ECCENTRICITY": 0.0022989,
        "INCLINATION": 35.2452,
        "RA_OF_ASC_NODE": 66.9092,
        "ARG_OF_PERICENTER": 213.7326,
        "MEAN_ANOMALY": 151.3369,
        "EPHEMERIS_TYPE": 0,
        "CLASSIFICATION_TYPE": "U",
        "NORAD_CAT_ID": 39199,
        "ELEMENT_SET_NO": 999,
        "REV_AT_EPOCH": 4525,
        "BSTAR": 0,
        "MEAN_MOTION_DOT": 7.7e-7,
        "MEAN_MOTION_DDOT": 0
    },
    {
        "OBJECT_NAME": "GPS BIIF-5  (PRN 30)",
        "OBJECT_ID": "2014-008A",
        "EPOCH": "2025-11-16T18:49:50.942496",
        "MEAN_MOTION": 2.00573001,
        "ECCENTRICITY": 0.00786441,
        "INCLINATION": 53.6263,
        "RA_OF_ASC_NODE": 157.9834,
        "ARG_OF_PERICENTER": 226.2162,
        "MEAN_ANOMALY": 133.2029,
        "EPHEMERIS_TYPE": 0,
        "CLASSIFICATION_TYPE": "U",
        "NORAD_CAT_ID": 39533,
        "ELEMENT_SET_NO": 999,
        "REV_AT_EPOCH": 8542,
        "BSTAR": 0,
        "MEAN_MOTION_DOT": 9.6e-7,
        "MEAN_MOTION_DDOT": 0
    },
    {
        "OBJECT_NAME": "ASTRA 5B (EGNOS/PRN 123)",
        "OBJECT_ID": "2014-011B",
        "EPOCH": "2025-11-18T03:23:38.605056",
        "MEAN_MOTION": 1.00274456,
        "ECCENTRICITY": 0.0004278,
        "INCLINATION": 0.0591,
        "RA_OF_ASC_NODE": 34.4401,
        "ARG_OF_PERICENTER": 212.6498,
        "MEAN_ANOMALY": 244.7808,
        "EPHEMERIS_TYPE": 0,
        "CLASSIFICATION_TYPE": "U",
        "NORAD_CAT_ID": 39617,
        "ELEMENT_SET_NO": 999,
        "REV_AT_EPOCH": 4255,
        "BSTAR": 0,
        "MEAN_MOTION_DOT": 1.55e-6,
        "MEAN_MOTION_DDOT": 0
    },
    {
        "OBJECT_NAME": "COSMOS 2492 (754)",
        "OBJECT_ID": "2014-012A",
        "EPOCH": "2025-11-18T04:06:47.056608",
        "MEAN_MOTION": 2.13103312,
        "ECCENTRICITY": 0.0013963,
        "INCLINATION": 65.4212,
        "RA_OF_ASC_NODE": 321.1042,
        "ARG_OF_PERICENTER": 309.1477,
        "MEAN_ANOMALY": 50.7497,
        "EPHEMERIS_TYPE": 0,
        "CLASSIFICATION_TYPE": "U",
        "NORAD_CAT_ID": 39620,
        "ELEMENT_SET_NO": 999,
        "REV_AT_EPOCH": 9074,
        "BSTAR": 0,
        "MEAN_MOTION_DOT": -4.8e-7,
        "MEAN_MOTION_DDOT": 0
    },
    {
        "OBJECT_NAME": "IRNSS-1B",
        "OBJECT_ID": "2014-017A",
        "EPOCH": "2025-11-15T21:22:58.452384",
        "MEAN_MOTION": 1.00270079,
        "ECCENTRICITY": 0.00184178,
        "INCLINATION": 28.8729,
        "RA_OF_ASC_NODE": 244.0533,
        "ARG_OF_PERICENTER": 186.4782,
        "MEAN_ANOMALY": 0.4586,
        "EPHEMERIS_TYPE": 0,
        "CLASSIFICATION_TYPE": "U",
        "NORAD_CAT_ID": 39635,
        "ELEMENT_SET_NO": 999,
        "REV_AT_EPOCH": 4265,
        "BSTAR": 0,
        "MEAN_MOTION_DOT": 9.3e-7,
        "MEAN_MOTION_DDOT": 0
    }
]