BEIDOU-2 M6             
1 38775U 12050B   25321.80714876 -.00000065  00000+0  00000+0 0  9992
2 38775  56.3576  69.8947 0010581 349.1232  10.8356  1.86230929 89376
GSAT-10                 
1 38779U 12051B   25322.10846333 -.00000148  00000+0  00000+0 0  9997
2 38779   0.0693 263.1503 0003420 229.9165  46.4019  1.00272402 47987
NAVSTAR 67 (USA 239)    
1 38833U 12053A   25321.92261507  .00000092  00000+0  00000+0 0  9990
2 38833  53.5529 152.2552 0175002  63.6017 298.2490  2.00564848 95203
GSAT0103 (GALILEO-FM3)  
1 38857U 12055A   25321.71779440  .00000032  00000+0  00000+0 0  9999
2 38857  55.6776 107.3534 0001959 267.7118  92.2398  1.70473465 81401
BEIDOU-2 G6             
1 38953U 12059A   25321.96596473 -.00000159  00000+0  00000+0 0  9991
2 38953   3.8847  75.7459 0006936 296.2228 117.0432  1.00274741 47793
LUCH-5B                 
1 38977U 12061A   25322.01735833 -.00000123  00000+0  00000+0 0  9993
2 38977  10.0271  51.9358 0007182 182.7537 172.6113  1.00271237 47486
NAVSTAR 68 (USA 242)    
1 39166U 13023A   25321.78635422 -.00000067  00000+0  00000+0 0  9996
2 39166  54.6737 277.5823 0136392  48.3559 312.7822  2.00565310 91648
IRNSS-1A                
1 39199U 13034A   25321.88865762  .00000077  00000+0  00000+0 0  9997
2 39199  35.2452  66.9092 0022989 213.7326 151.3369  1.00274675 45256
NAVSTAR 69 (USA 248)    
1 39533U 14008A   25320.78461739  .00000096  00000+0  00000+0 0  9996
2 39533  53.6263 157.9834 0078644 226.2162 133.2029  2.00573001 85424
ASTRA 5B                
1 39617U 14011B   25322.14141904  .00000155  00000+0  00000+0 0  9990
2 39617   0.0591  34.4401 0004278 212.6498 244.7808  1.00274456 42550
COSMOS 2492 [GLONASS-M] 
1 39620U 14012A   25322.17137797 -.00000048  00000+0  00000+0 0  9995
2 39620  65.4212 321.1042 0013963 309.1477  50.7497  2.13103312 90746
IRNSS-1B                
1 39635U 14017A   25319.89095431  .00000093  00000+0  00000+0 0  9998
2 39635  28.8729 244.0533 0018417 186.4782   0.4586  1.00270079 42658
